STARLINK-3004           
1 48880U 21059B   25331.84405581  .00000567  00000+0  48768-4 0  9998
2 48880  97.6603  94.8326 0001902 217.0063 143.1030 15.01259733243528
STARLINK-3005           
1 48881U 21059C   25332.10402698  .00000927  00000+0  76770-4 0  9999
2 48881  97.6624  95.0489 0001185  79.8087 280.3271 15.01256470243568
STARLINK-3096           
1 49131U 21082B   25331.88368272 -.00000265  00000+0 -14430-4 0  9999
2 49131  69.9984 151.1339 0002849 276.3913  83.6921 14.98337260231718
STARLINK-3090           
1 49132U 21082C   25332.03017242  .00000413  00000+0  42372-4 0  9995
2 49132  69.9974 190.6460 0002711 270.1097  89.9751 14.98329492230755
STARLINK-3077           
1 49133U 21082D   25332.04686854  .00001184  00000+0  10703-3 0  9996
2 49133  69.9978 190.7306 0002925 269.6802  90.4022 14.98333443230753
STARLINK-3078           
1 49134U 21082E   25332.04269825  .00000672  00000+0  64087-4 0  9998
2 49134  69.9978 190.7452 0002462 268.3749  91.7128 14.98331061231956
STARLINK-3073           
1 49135U 21082F   25331.87950448  .00000336  00000+0  35964-4 0  9996
2 49135  69.9981 151.1361 0002942 267.3305  92.7517 14.98329802231729
STARLINK-3055           
1 49137U 21082H   25331.88355580 -.00002136  00000+0 -17505-3 0  9997
2 49137  69.9993 171.6091 0002603 226.2990 133.7953 14.97503698231219
STARLINK-3058           
1 49138U 21082J   25332.03852762 -.00005303  00000+0 -43677-3 0  9998
2 49138  69.9979 190.7592 0002766 274.4988  85.5855 14.98351849230757
STARLINK-3057           
1 49139U 21082K   25331.87117664  .00000216  00000+0  25943-4 0  9998
2 49139  69.9980 151.1639 0002927 273.7646  86.3179 14.98324097231715
STARLINK-3093           
1 49141U 21082M   25332.03435441  .00000753  00000+0  70901-4 0  9996
2 49141  69.9977 190.7727 0002903 270.1744  89.9082 14.98329424231952
STARLINK-3109           
1 49143U 21082P   25331.87948205 -.00000044  00000+0  41506-5 0  9990
2 49143  69.9978 171.6194 0002345 267.9788  92.1102 14.97527089232320
STARLINK-3100           
1 49144U 21082Q   25332.02600653  .00000079  00000+0  14424-4 0  9996
2 49144  69.9978 190.7717 0002698 274.3341  85.7510 14.98334392230752
STARLINK-3119           
1 49145U 21082R   25331.90871241 -.00000155  00000+0 -51890-5 0  9992
2 49145  69.9976 151.0660 0002867 271.3224  88.7606 14.98329038231710
STARLINK-3116           
1 49146U 21082S   25331.87530929 -.00001069  00000+0 -83558-4 0  9994
2 49146  69.9978 171.6341 0002619 266.0976  93.9883 14.97527395232369
STARLINK-3071           
1 49147U 21082T   25331.85447213  .00000521  00000+0  51447-4 0  9998
2 49147  69.9980 151.2204 0002711 270.7221  89.3628 14.98329851231715
STARLINK-3048           
1 49148U 21082U   25331.86696499  .00002853  00000+0  25188-3 0  9994
2 49148  69.9990 171.6346 0002930 279.2838  80.7990 14.97537843231203
