[{"OBJECT_NAME":"STARLINK-3004","OBJECT_ID":"2021-059B","EPOCH":"2025-11-27T20:15:26.421984","MEAN_MOTION":15.01259733,"ECCENTRICITY":0.0001902,"INCLINATION":97.6603,"RA_OF_ASC_NODE":94.8326,"ARG_OF_PERICENTER":217.0063,"MEAN_ANOMALY":143.103,"EPHEMERIS_TYPE":0,"CLASSIFICATION_TYPE":"U","NORAD_CAT_ID":48880,"ELEMENT_SET_NO":999,"REV_AT_EPOCH":24352,"BSTAR":4.8768e-5,"MEAN_MOTION_DOT":5.67e-6,"MEAN_MOTION_DDOT":0},{"OBJECT_NAME":"STARLINK-3005","OBJECT_ID":"2021-059C","EPOCH":"2025-11-28T02:29:47.931072","MEAN_MOTION":15.0125647,"ECCENTRICITY":0.0001185,"INCLINATION":97.6624,"RA_OF_ASC_NODE":95.0489,"ARG_OF_PERICENTER":79.8087,"MEAN_ANOMALY":280.3271,"EPHEMERIS_TYPE":0,"CLASSIFICATION_TYPE":"U","NORAD_CAT_ID":48881,"ELEMENT_SET_NO":999,"REV_AT_EPOCH":24356,"BSTAR":7.677e-5,"MEAN_MOTION_DOT":9.27e-6,"MEAN_MOTION_DDOT":0},{"OBJECT_NAME":"STARLINK-3096","OBJECT_ID":"2021-082B","EPOCH":"2025-11-27T21:12:30.187008","MEAN_MOTION":14.9833726,"ECCENTRICITY":0.0002849,"INCLINATION":69.9984,"RA_OF_ASC_NODE":151.1339,"ARG_OF_PERICENTER":276.3913,"MEAN_ANOMALY":83.6921,"EPHEMERIS_TYPE":0,"CLASSIFICATION_TYPE":"U","NORAD_CAT_ID":49131,"ELEMENT_SET_NO":999,"REV_AT_EPOCH":23171,"BSTAR":-1.443e-5,"MEAN_MOTION_DOT":-2.65e-6,"MEAN_MOTION_DDOT":0},{"OBJECT_NAME":"STARLINK-3090","OBJECT_ID":"2021-082C","EPOCH":"2025-11-28T00:43:26.897088","MEAN_MOTION":14.98329492,"ECCENTRICITY":0.0002711,"INCLINATION":69.9974,"RA_OF_ASC_NODE":190.646,"ARG_OF_PERICENTER":270.1097,"MEAN_ANOMALY":89.9751,"EPHEMERIS_TYPE":0,"CLASSIFICATION_TYPE":"U","NORAD_CAT_ID":49132,"ELEMENT_SET_NO":999,"REV_AT_EPOCH":23075,"BSTAR":4.2372e-5,"MEAN_MOTION_DOT":4.13e-6,"MEAN_MOTION_DDOT":0},{"OBJECT_NAME":"STARLINK-3077","OBJECT_ID":"2021-082D","EPOCH":"2025-11-28T01:07:29.441856","MEAN_MOTION":14.98333443,"ECCENTRICITY":0.0002925,"INCLINATION":69.9978,"RA_OF_ASC_NODE":190.7306,"ARG_OF_PERICENTER":269.6802,"MEAN_ANOMALY":90.4022,"EPHEMERIS_TYPE":0,"CLASSIFICATION_TYPE":"U","NORAD_CAT_ID":49133,"ELEMENT_SET_NO":999,"REV_AT_EPOCH":23075,"BSTAR":0.00010703,"MEAN_MOTION_DOT":1.184e-5,"MEAN_MOTION_DDOT":0},{"OBJECT_NAME":"STARLINK-3078","OBJECT_ID":"2021-082E","EPOCH":"2025-11-28T01:01:29.128800","MEAN_MOTION":14.98331061,"ECCENTRICITY":0.0002462,"INCLINATION":69.9978,"RA_OF_ASC_NODE":190.7452,"ARG_OF_PERICENTER":268.3749,"MEAN_ANOMALY":91.7128,"EPHEMERIS_TYPE":0,"CLASSIFICATION_TYPE":"U","NORAD_CAT_ID":49134,"ELEMENT_SET_NO":999,"REV_AT_EPOCH":23195,"BSTAR":6.4087e-5,"MEAN_MOTION_DOT":6.72e-6,"MEAN_MOTION_DDOT":0},{"OBJECT_NAME":"STARLINK-3073","OBJECT_ID":"2021-082F","EPOCH":"2025-11-27T21:06:29.187072","MEAN_MOTION":14.98329802,"ECCENTRICITY":0.0002942,"INCLINATION":69.9981,"RA_OF_ASC_NODE":151.1361,"ARG_OF_PERICENTER":267.3305,"MEAN_ANOMALY":92.7517,"EPHEMERIS_TYPE":0,"CLASSIFICATION_TYPE":"U","NORAD_CAT_ID":49135,"ELEMENT_SET_NO":999,"REV_AT_EPOCH":23172,"BSTAR":3.5964e-5,"MEAN_MOTION_DOT":3.36e-6,"MEAN_MOTION_DDOT":0},{"OBJECT_NAME":"STARLINK-3055","OBJECT_ID":"2021-082H","EPOCH":"2025-11-27T21:12:19.221120","MEAN_MOTION":14.97503698,"ECCENTRICITY":0.0002603,"INCLINATION":69.9993,"RA_OF_ASC_NODE":171.6091,"ARG_OF_PERICENTER":226.299,"MEAN_ANOMALY":133.7953,"EPHEMERIS_TYPE":0,"CLASSIFICATION_TYPE":"U","NORAD_CAT_ID":49137,"ELEMENT_SET_NO":999,"REV_AT_EPOCH":23121,"BSTAR":-0.00017505,"MEAN_MOTION_DOT":-2.136e-5,"MEAN_MOTION_DDOT":0},{"OBJECT_NAME":"STARLINK-3058","OBJECT_ID":"2021-082J","EPOCH":"2025-11-28T00:55:28.786368","MEAN_MOTION":14.98351849,"ECCENTRICITY":0.0002766,"INCLINATION":69.9979,"RA_OF_ASC_NODE":190.7592,"ARG_OF_PERICENTER":274.4988,"MEAN_ANOMALY":85.5855,"EPHEMERIS_TYPE":0,"CLASSIFICATION_TYPE":"U","NORAD_CAT_ID":49138,"ELEMENT_SET_NO":999,"REV_AT_EPOCH":23075,"BSTAR":-0.00043677,"MEAN_MOTION_DOT":-5.303e-5,"MEAN_MOTION_DDOT":0},{"OBJECT_NAME":"STARLINK-3057","OBJECT_ID":"2021-082K","EPOCH":"2025-11-27T20:54:29.661696","MEAN_MOTION":14.98324097,"ECCENTRICITY":0.0002927,"INCLINATION":69.998,"RA_OF_ASC_NODE":151.1639,"ARG_OF_PERICENTER":273.7646,"MEAN_ANOMALY":86.3179,"EPHEMERIS_TYPE":0,"CLASSIFICATION_TYPE":"U","NORAD_CAT_ID":49139,"ELEMENT_SET_NO":999,"REV_AT_EPOCH":23171,"BSTAR":2.5943e-5,"MEAN_MOTION_DOT":2.16e-6,"MEAN_MOTION_DDOT":0},{"OBJECT_NAME":"STARLINK-3093","OBJECT_ID":"2021-082M","EPOCH":"2025-11-28T00:49:28.221024","MEAN_MOTION":14.98329424,"ECCENTRICITY":0.0002903,"INCLINATION":69.9977,"RA_OF_ASC_NODE":190.7727,"ARG_OF_PERICENTER":270.1744,"MEAN_ANOMALY":89.9082,"EPHEMERIS_TYPE":0,"CLASSIFICATION_TYPE":"U","NORAD_CAT_ID":49141,"ELEMENT_SET_NO":999,"REV_AT_EPOCH":23195,"BSTAR":7.0901e-5,"MEAN_MOTION_DOT":7.53e-6,"MEAN_MOTION_DDOT":0},{"OBJECT_NAME":"STARLINK-3109","OBJECT_ID":"2021-082P","EPOCH":"2025-11-27T21:06:27.249120","MEAN_MOTION":14.97527089,"ECCENTRICITY":0.0002345,"INCLINATION":69.9978,"RA_OF_ASC_NODE":171.6194,"ARG_OF_PERICENTER":267.9788,"MEAN_ANOMALY":92.1102,"EPHEMERIS_TYPE":0,"CLASSIFICATION_TYPE":"U","NORAD_CAT_ID":49143,"ELEMENT_SET_NO":999,"REV_AT_EPOCH":23232,"BSTAR":4.1506e-6,"MEAN_MOTION_DOT":-4.4e-7,"MEAN_MOTION_DDOT":0},{"OBJECT_NAME":"STARLINK-3100","OBJECT_ID":"2021-082Q","EPOCH":"2025-11-28T00:37:26.964192","MEAN_MOTION":14.98334392,"ECCENTRICITY":0.0002698,"INCLINATION":69.9978,"RA_OF_ASC_NODE":190.7717,"ARG_OF_PERICENTER":274.3341,"MEAN_ANOMALY":85.751,"EPHEMERIS_TYPE":0,"CLASSIFICATION_TYPE":"U","NORAD_CAT_ID":49144,"ELEMENT_SET_NO":999,"REV_AT_EPOCH":23075,"BSTAR":1.4424e-5,"MEAN_MOTION_DOT":7.9e-7,"MEAN_MOTION_DDOT":0},{"OBJECT_NAME":"STARLINK-3119","OBJECT_ID":"2021-082R","EPOCH":"2025-11-27T21:48:32.752224","MEAN_MOTION":14.98329038,"ECCENTRICITY":0.0002867,"INCLINATION":69.9976,"RA_OF_ASC_NODE":151.066,"ARG_OF_PERICENTER":271.3224,"MEAN_ANOMALY":88.7606,"EPHEMERIS_TYPE":0,"CLASSIFICATION_TYPE":"U","NORAD_CAT_ID":49145,"ELEMENT_SET_NO":999,"REV_AT_EPOCH":23171,"BSTAR":-5.189e-6,"MEAN_MOTION_DOT":-1.55e-6,"MEAN_MOTION_DDOT":0},{"OBJECT_NAME":"STARLINK-3116","OBJECT_ID":"2021-082S","EPOCH":"2025-11-27T21:00:26.722656","MEAN_MOTION":14.97527395,"ECCENTRICITY":0.0002619,"INCLINATION":69.9978,"RA_OF_ASC_NODE":171.6341,"ARG_OF_PERICENTER":266.0976,"MEAN_ANOMALY":93.9883,"EPHEMERIS_TYPE":0,"CLASSIFICATION_TYPE":"U","NORAD_CAT_ID":49146,"ELEMENT_SET_NO":999,"REV_AT_EPOCH":23236,"BSTAR":-8.3558e-5,"MEAN_MOTION_DOT":-1.069e-5,"MEAN_MOTION_DDOT":0},{"OBJECT_NAME":"STARLINK-3071","OBJECT_ID":"2021-082T","EPOCH":"2025-11-27T20:30:26.392032","MEAN_MOTION":14.98329851,"ECCENTRICITY":0.0002711,"INCLINATION":69.998,"RA_OF_ASC_NODE":151.2204,"ARG_OF_PERICENTER":270.7221,"MEAN_ANOMALY":89.3628,"EPHEMERIS_TYPE":0,"CLASSIFICATION_TYPE":"U","NORAD_CAT_ID":49147,"ELEMENT_SET_NO":999,"REV_AT_EPOCH":23171,"BSTAR":5.1447e-5,"MEAN_MOTION_DOT":5.21e-6,"MEAN_MOTION_DDOT":0},{"OBJECT_NAME":"STARLINK-3048","OBJECT_ID":"2021-082U","EPOCH":"2025-11-27T20:48:25.775136","MEAN_MOTION":14.97537843,"ECCENTRICITY":0.000293,"INCLINATION":69.999,"RA_OF_ASC_NODE":171.6346,"ARG_OF_PERICENTER":279.2838,"MEAN_ANOMALY":80.799,"EPHEMERIS_TYPE":0,"CLASSIFICATION_TYPE":"U","NORAD_CAT_ID":49148,"ELEMENT_SET_NO":999,"REV_AT_EPOCH":23120,"BSTAR":0.00025188,"MEAN_MOTION_DOT":2.853e-5,"MEAN_MOTION_DDOT":0}]
